[{"OBJECT_NAME":"STARLINK-4128","OBJECT_ID":"2022-086H","EPOCH":"2026-03-09T15:27:51.310368","MEAN_MOTION":15.08839062,"ECCENTRICITY":0.0001012,"INCLINATION":53.2157,"RA_OF_ASC_NODE":194.3315,"ARG_OF_PERICENTER":82.8446,"MEAN_ANOMALY":277.2661,"EPHEMERIS_TYPE":0,"CLASSIFICATION_TYPE":"U","NORAD_CAT_ID":53249,"ELEMENT_SET_NO":999,"REV_AT_EPOCH":20107,"BSTAR":1.2875e-5,"MEAN_MOTION_DOT":-8.3e-7,"MEAN_MOTION_DDOT":0},{"OBJECT_NAME":"CZ-6A DEB","OBJECT_ID":"2024-140UQ","EPOCH":"2026-03-09T14:36:35.114400","MEAN_MOTION":15.29987293,"ECCENTRICITY":0.0094347,"INCLINATION":89.0483,"RA_OF_ASC_NODE":279.5661,"ARG_OF_PERICENTER":66.0307,"MEAN_ANOMALY":295.0787,"EPHEMERIS_TYPE":0,"CLASSIFICATION_TYPE":"U","NORAD_CAT_ID":61327,"ELEMENT_SET_NO":999,"REV_AT_EPOCH":8299,"BSTAR":0.0015211,"MEAN_MOTION_DOT":0.00050856,"MEAN_MOTION_DDOT":0}]
